SHENZHOU-21 (SZ-21)     
1 66263U 25246A   25316.15916016  .00037252  00000+0  43345-3 0  9998
2 66263  41.4652 202.3333 0004388   9.4250 350.6671 15.60957853258132
CZ-2F R/B               
1 66264U 25246B   25316.02352218  .12378867  81186-5  13685-3 0  9990
2 66264  41.4424 197.4583 0019760 232.0549 127.8536 16.48584502  1848
