CCSDS_OMM_VERS = 2.0
CREATION_DATE  = 
ORIGINATOR     = 

OBJECT_NAME    = SHENZHOU-21 (SZ-21)
OBJECT_ID      = 2025-246A
CENTER_NAME    = EARTH
REF_FRAME      = TEME
TIME_SYSTEM    = UTC
MEAN_ELEMENT_THEORY = SGP/SGP4

EPOCH          = 2025-11-12T03:49:11.437824
MEAN_MOTION    = 15.60957853
ECCENTRICITY   = .00043888
INCLINATION    = 41.4652
RA_OF_ASC_NODE = 202.3333
ARG_OF_PERICENTER = 9.4250
MEAN_ANOMALY   = 350.6671

EPHEMERIS_TYPE = 0
CLASSIFICATION_TYPE = U
NORAD_CAT_ID   = 66263
ELEMENT_SET_NO = 999
REV_AT_EPOCH   = 25813
BSTAR          = .43344823E-3
MEAN_MOTION_DOT = .37252E-3
MEAN_MOTION_DDOT = 0

CCSDS_OMM_VERS = 2.0
CREATION_DATE  = 
ORIGINATOR     = 

OBJECT_NAME    = CZ-2F R/B
OBJECT_ID      = 2025-246B
CENTER_NAME    = EARTH
REF_FRAME      = TEME
TIME_SYSTEM    = UTC
MEAN_ELEMENT_THEORY = SGP/SGP4

EPOCH          = 2025-11-12T00:33:52.316352
MEAN_MOTION    = 16.48584502
ECCENTRICITY   = .00197608
INCLINATION    = 41.4424
RA_OF_ASC_NODE = 197.4583
ARG_OF_PERICENTER = 232.0549
MEAN_ANOMALY   = 127.8536

EPHEMERIS_TYPE = 0
CLASSIFICATION_TYPE = U
NORAD_CAT_ID   = 66264
ELEMENT_SET_NO = 999
REV_AT_EPOCH   = 184
BSTAR          = .13685201E-3
MEAN_MOTION_DOT = .12378867E+0
MEAN_MOTION_DDOT = .8118573E-5

